{
  "type": "FeatureCollection",
  "features": [
    {
      "type": "Feature",
      "properties": {
        "norad_id": 36533,
        "name": "COSMOS 2251 DEB",
        "group": "cosmos-2251-debris",
        "lat": 60.950765809812694,
        "lon": 149.57233377689525,
        "alt_km": 752.2854023094333,
        "timestamp": "2025-12-10T18:57:00.462377+00:00",
        "meta_object_name": "COSMOS 2251 DEB",
        "meta_object_id": "1993-036BCT",
        "meta_epoch": "2025-12-10T08:42:41.261184",
        "meta_mean_motion": 14.49801207,
        "meta_eccentricity": 0.0049198,
        "meta_inclination": 74.011,
        "meta_ra_of_asc_node": 119.2951,
        "meta_arg_of_pericenter": 268.8603,
        "meta_mean_anomaly": 90.692,
        "meta_ephemeris_type": 0,
        "meta_classification_type": "U",
        "meta_norad_cat_id": 36533,
        "meta_element_set_no": 999,
        "meta_rev_at_epoch": 84450,
        "meta_bstar": 0.0007927,
        "meta_mean_motion_dot": 3.077e-05,
        "meta_mean_motion_ddot": 0,
        "tle_line1": "1 36533U 93036BCT 25344.36297756  .00003077  00000+0  79270-3 0  9998",
        "tle_line2": "2 36533  74.0110 119.2951 0049198 268.8603  90.6920 14.49801207844500"
      },
      "geometry": {
        "type": "Point",
        "coordinates": [
          149.57233377689525,
          60.950765809812694
        ]
      }
    },
    {
      "type": "Feature",
      "properties": {
        "norad_id": 36539,
        "name": "COSMOS 2251 DEB",
        "group": "cosmos-2251-debris",
        "lat": -19.339177971729487,
        "lon": -115.32918261922937,
        "alt_km": 680.9899491568158,
        "timestamp": "2025-12-10T18:57:00.462386+00:00",
        "meta_object_name": "COSMOS 2251 DEB",
        "meta_object_id": "1993-036BCZ",
        "meta_epoch": "2025-12-10T11:27:15.891264",
        "meta_mean_motion": 14.59276907,
        "meta_eccentricity": 0.0027337,
        "meta_inclination": 74.0238,
        "meta_ra_of_asc_node": 59.4957,
        "meta_arg_of_pericenter": 205.0816,
        "meta_mean_anomaly": 154.9023,
        "meta_ephemeris_type": 0,
        "meta_classification_type": "U",
        "meta_norad_cat_id": 36539,
        "meta_element_set_no": 999,
        "meta_rev_at_epoch": 83914,
        "meta_bstar": 0.0011631,
        "meta_mean_motion_dot": 5.497e-05,
        "meta_mean_motion_ddot": 0,
        "tle_line1": "1 36539U 93036BCZ 25344.47726726  .00005497  00000+0  11631-2 0  9994",
        "tle_line2": "2 36539  74.0238  59.4957 0027337 205.0816 154.9023 14.59276907839144"
      },
      "geometry": {
        "type": "Point",
        "coordinates": [
          -115.32918261922937,
          -19.339177971729487
        ]
      }
    },
    {
      "type": "Feature",
      "properties": {
        "norad_id": 36540,
        "name": "COSMOS 2251 DEB",
        "group": "cosmos-2251-debris",
        "lat": 11.836647772303673,
        "lon": 0.7890439671664267,
        "alt_km": 698.533653088657,
        "timestamp": "2025-12-10T18:57:00.462396+00:00",
        "meta_object_name": "COSMOS 2251 DEB",
        "meta_object_id": "1993-036BDA",
        "meta_epoch": "2025-12-10T06:39:32.334048",
        "meta_mean_motion": 14.58442715,
        "meta_eccentricity": 0.0015131,
        "meta_inclination": 74.0281,
        "meta_ra_of_asc_node": 185.2051,
        "meta_arg_of_pericenter": 255.4222,
        "meta_mean_anomaly": 104.5265,
        "meta_ephemeris_type": 0,
        "meta_classification_type": "U",
        "meta_norad_cat_id": 36540,
        "meta_element_set_no": 999,
        "meta_rev_at_epoch": 85974,
        "meta_bstar": 0.001482,
        "meta_mean_motion_dot": 6.863e-05,
        "meta_mean_motion_ddot": 0,
        "tle_line1": "1 36540U 93036BDA 25344.27745757  .00006863  00000+0  14820-2 0  9990",
        "tle_line2": "2 36540  74.0281 185.2051 0015131 255.4222 104.5265 14.58442715859744"
      },
      "geometry": {
        "type": "Point",
        "coordinates": [
          0.7890439671664267,
          11.836647772303673
        ]
      }
    },
    {
      "type": "Feature",
      "properties": {
        "norad_id": 36550,
        "name": "COSMOS 2251 DEB",
        "group": "cosmos-2251-debris",
        "lat": -44.54881479694052,
        "lon": 32.626738463375176,
        "alt_km": 754.6080197063884,
        "timestamp": "2025-12-10T18:57:00.462406+00:00",
        "meta_object_name": "COSMOS 2251 DEB",
        "meta_object_id": "1993-036BDL",
        "meta_epoch": "2025-12-10T07:47:30.355296",
        "meta_mean_motion": 14.27188592,
        "meta_eccentricity": 0.0078573,
        "meta_inclination": 74.0439,
        "meta_ra_of_asc_node": 197.11,
        "meta_arg_of_pericenter": 248.3043,
        "meta_mean_anomaly": 110.9726,
        "meta_ephemeris_type": 0,
        "meta_classification_type": "U",
        "meta_norad_cat_id": 36550,
        "meta_element_set_no": 999,
        "meta_rev_at_epoch": 84561,
        "meta_bstar": 0.00085112,
        "meta_mean_motion_dot": 2.122e-05,
        "meta_mean_motion_ddot": 0,
        "tle_line1": "1 36550U 93036BDL 25344.32465689  .00002122  00000+0  85112-3 0  9997",
        "tle_line2": "2 36550  74.0439 197.1100 0078573 248.3043 110.9726 14.27188592845618"
      },
      "geometry": {
        "type": "Point",
        "coordinates": [
          32.626738463375176,
          -44.54881479694052
        ]
      }
    },
    {
      "type": "Feature",
      "properties": {
        "norad_id": 36551,
        "name": "COSMOS 2251 DEB",
        "group": "cosmos-2251-debris",
        "lat": 60.09601882272064,
        "lon": 168.54197678173486,
        "alt_km": 582.7491214697238,
        "timestamp": "2025-12-10T18:57:00.462416+00:00",
        "meta_object_name": "COSMOS 2251 DEB",
        "meta_object_id": "1993-036BDM",
        "meta_epoch": "2025-12-10T08:50:58.960608",
        "meta_mean_motion": 15.0244144,
        "meta_eccentricity": 0.0050842,
        "meta_inclination": 73.886,
        "meta_ra_of_asc_node": 19.5853,
        "meta_arg_of_pericenter": 329.1413,
        "meta_mean_anomaly": 30.6788,
        "meta_ephemeris_type": 0,
        "meta_classification_type": "U",
        "meta_norad_cat_id": 36551,
        "meta_element_set_no": 999,
        "meta_rev_at_epoch": 66896,
        "meta_bstar": 0.0019098,
        "meta_mean_motion_dot": 0.00026098,
        "meta_mean_motion_ddot": 0,
        "tle_line1": "1 36551U 93036BDM 25344.36873797  .00026098  00000+0  19098-2 0  9992",
        "tle_line2": "2 36551  73.8860  19.5853 0050842 329.1413  30.6788 15.02441440668969"
      },
      "geometry": {
        "type": "Point",
        "coordinates": [
          168.54197678173486,
          60.09601882272064
        ]
      }
    },
    {
      "type": "Feature",
      "properties": {
        "norad_id": 36557,
        "name": "COSMOS 2251 DEB",
        "group": "cosmos-2251-debris",
        "lat": -73.89610366569275,
        "lon": 34.48755724990284,
        "alt_km": 628.001210173542,
        "timestamp": "2025-12-10T18:57:00.462426+00:00",
        "meta_object_name": "COSMOS 2251 DEB",
        "meta_object_id": "1993-036BDT",
        "meta_epoch": "2025-12-08T17:00:11.364768",
        "meta_mean_motion": 14.77931999,
        "meta_eccentricity": 0.00210313,
        "meta_inclination": 73.9794,
        "meta_ra_of_asc_node": 134.1932,
        "meta_arg_of_pericenter": 285.3686,
        "meta_mean_anomaly": 74.5165,
        "meta_ephemeris_type": 0,
        "meta_classification_type": "U",
        "meta_norad_cat_id": 36557,
        "meta_element_set_no": 999,
        "meta_rev_at_epoch": 33837,
        "meta_bstar": 0.00427946,
        "meta_mean_motion_dot": 0.00031056,
        "meta_mean_motion_ddot": 0,
        "tle_line1": "1 36557U 93036BDT 25342.70846487  .00031056  00000+0  42795-2 0  9990",
        "tle_line2": "2 36557  73.9794 134.1932 0021031 285.3686  74.5165 14.77931999338376"
      },
      "geometry": {
        "type": "Point",
        "coordinates": [
          34.48755724990284,
          -73.89610366569275
        ]
      }
    },
    {
      "type": "Feature",
      "properties": {
        "norad_id": 36558,
        "name": "COSMOS 2251 DEB",
        "group": "cosmos-2251-debris",
        "lat": 7.123120971181436,
        "lon": 160.2846871995691,
        "alt_km": 714.6726041560114,
        "timestamp": "2025-12-10T18:57:00.462436+00:00",
        "meta_object_name": "COSMOS 2251 DEB",
        "meta_object_id": "1993-036BDU",
        "meta_epoch": "2025-12-09T18:10:09.606432",
        "meta_mean_motion": 14.55323693,
        "meta_eccentricity": 0.00129627,
        "meta_inclination": 74.0418,
        "meta_ra_of_asc_node": 160.1895,
        "meta_arg_of_pericenter": 248.6111,
        "meta_mean_anomaly": 111.367,
        "meta_ephemeris_type": 0,
        "meta_classification_type": "U",
        "meta_norad_cat_id": 36558,
        "meta_element_set_no": 999,
        "meta_rev_at_epoch": 85225,
        "meta_bstar": 0.0013992246,
        "meta_mean_motion_dot": 6.051e-05,
        "meta_mean_motion_ddot": 0,
        "tle_line1": "1 36558U 93036BDU 25343.75705563  .00006051  00000+0  13992-2 0  9990",
        "tle_line2": "2 36558  74.0418 160.1895 0012962 248.6111 111.3670 14.55323693852258"
      },
      "geometry": {
        "type": "Point",
        "coordinates": [
          160.2846871995691,
          7.123120971181436
        ]
      }
    }
  ]
}